{"type": "FeatureCollection", "features": [ {"type": "Feature", "properties": {"norad_id": 34432, "name": "COSMOS 2251 DEB", "group": "cosmos-2251-debris", "lat": -1.6444006952459036, "lon": 117.98772996486359, "alt_km": 1007.7738086946465, "timestamp": "2025-12-03T13:52:09.961116+00:00", "meta": {"OBJECT_NAME": "COSMOS 2251 DEB", "OBJECT_ID": "1993-036RZ", "EPOCH": "2025-12-03T02:28:17.071104", "MEAN_MOTION": 14.02836729, "ECCENTRICITY": 0.01831849, "INCLINATION": 73.8275, "RA_OF_ASC_NODE": 119.3014, "ARG_OF_PERICENTER": 203.436, "MEAN_ANOMALY": 276.5797, "EPHEMERIS_TYPE": 0, "CLASSIFICATION_TYPE": "U", "NORAD_CAT_ID": 34432, "ELEMENT_SET_NO": 999, "REV_AT_EPOCH": 85549, "BSTAR": 0.0016054633, "MEAN_MOTION_DOT": 2.856e-05, "MEAN_MOTION_DDOT": 0}, "tle": {"line1": "1 34432U 93036RZ  25337.10297536  .00002856  00000+0  16055-2 0  9999", "line2": "2 34432  73.8275 119.3014 0183184 203.4360 276.5797 14.02836729855498"}}, "geometry": {"type": "Point", "coordinates": [117.98772996486359, -1.6444006952459036]}}, {"type": "Feature", "properties": {"norad_id": 34433, "name": "COSMOS 2251 DEB", "group": "cosmos-2251-debris", "lat": 52.686527819535435, "lon": -166.7371567359586, "alt_km": 870.7029404502318, "timestamp": "2025-12-03T13:52:09.961127+00:00", "meta": {"OBJECT_NAME": "COSMOS 2251 DEB", "OBJECT_ID": "1993-036SA", "EPOCH": "2025-12-03T00:00:45.111168", "MEAN_MOTION": 14.12779901, "ECCENTRICITY": 0.01517359, "INCLINATION": 74.0107, "RA_OF_ASC_NODE": 172.1866, "ARG_OF_PERICENTER": 312.4155, "MEAN_ANOMALY": 46.4228, "EPHEMERIS_TYPE": 0, "CLASSIFICATION_TYPE": "U", "NORAD_CAT_ID": 34433, "ELEMENT_SET_NO": 999, "REV_AT_EPOCH": 85812, "BSTAR": 0.0017302028, "MEAN_MOTION_DOT": 3.559e-05, "MEAN_MOTION_DDOT": 0}, "tle": {"line1": "1 34433U 93036SA  25337.00052212  .00003559  00000+0  17302-2 0  9996", "line2": "2 34433  74.0107 172.1866 0151735 312.4155  46.4228 14.12779901858123"}}, "geometry": {"type": "Point", "coordinates": [-166.7371567359586, 52.686527819535435]}}, {"type": "Feature", "properties": {"norad_id": 34434, "name": "COSMOS 2251 DEB", "group": "cosmos-2251-debris", "lat": -14.729584435357221, "lon": 21.39786455309651, "alt_km": 1135.9638850215078, "timestamp": "2025-12-03T13:52:09.961137+00:00", "meta": {"OBJECT_NAME": "COSMOS 2251 DEB", "OBJECT_ID": "1993-036SB", "EPOCH": "2025-12-03T07:30:09.561888", "MEAN_MOTION": 13.89692002, "ECCENTRICITY": 0.02763809, "INCLINATION": 74.064, "RA_OF_ASC_NODE": 26.1565, "ARG_OF_PERICENTER": 165.6094, "MEAN_ANOMALY": 292.482, "EPHEMERIS_TYPE": 0, "CLASSIFICATION_TYPE": "U", "NORAD_CAT_ID": 34434, "ELEMENT_SET_NO": 999, "REV_AT_EPOCH": 83835, "BSTAR": 0.0038052633, "MEAN_MOTION_DOT": 6.327e-05, "MEAN_MOTION_DDOT": 0}, "tle": {"line1": "1 34434U 93036SB  25337.31261067  .00006327  00000+0  38053-2 0  9993", "line2": "2 34434  74.0640  26.1565 0276380 165.6094 292.4820 13.89692002838357"}}, "geometry": {"type": "Point", "coordinates": [21.39786455309651, -14.729584435357221]}}, {"type": "Feature", "properties": {"norad_id": 34446, "name": "COSMOS 2251 DEB", "group": "cosmos-2251-debris", "lat": 7.567975875806341, "lon": 76.64079292128024, "alt_km": 762.1688500302498, "timestamp": "2025-12-03T13:52:09.961148+00:00", "meta": {"OBJECT_NAME": "COSMOS 2251 DEB", "OBJECT_ID": "1993-036SP", "EPOCH": "2025-12-03T07:12:23.176800", "MEAN_MOTION": 14.49333816, "ECCENTRICITY": 0.00515768, "INCLINATION": 74.0422, "RA_OF_ASC_NODE": 74.9825, "ARG_OF_PERICENTER": 215.1104, "MEAN_ANOMALY": 144.6654, "EPHEMERIS_TYPE": 0, "CLASSIFICATION_TYPE": "U", "NORAD_CAT_ID": 34446, "ELEMENT_SET_NO": 999, "REV_AT_EPOCH": 88557, "BSTAR": 0.00025827911, "MEAN_MOTION_DOT": 9.74e-06, "MEAN_MOTION_DDOT": 0}, "tle": {"line1": "1 34446U 93036SP  25337.30026825  .00000974  00000+0  25828-3 0  9995", "line2": "2 34446  74.0422  74.9825 0051576 215.1104 144.6654 14.49333816885570"}}, "geometry": {"type": "Point", "coordinates": [76.64079292128024, 7.567975875806341]}}, {"type": "Feature", "properties": {"norad_id": 34449, "name": "COSMOS 2251 DEB", "group": "cosmos-2251-debris", "lat": 65.37418828981657, "lon": -129.63340234885843, "alt_km": 563.9340489193464, "timestamp": "2025-12-03T13:52:09.961158+00:00", "meta": {"OBJECT_NAME": "COSMOS 2251 DEB", "OBJECT_ID": "1993-036SS", "EPOCH": "2025-12-03T08:48:41.644224", "MEAN_MOTION": 14.93881728, "ECCENTRICITY": 0.00247996, "INCLINATION": 74.0326, "RA_OF_ASC_NODE": 89.4468, "ARG_OF_PERICENTER": 138.3693, "MEAN_ANOMALY": 277.8177, "EPHEMERIS_TYPE": 0, "CLASSIFICATION_TYPE": "U", "NORAD_CAT_ID": 34449, "ELEMENT_SET_NO": 999, "REV_AT_EPOCH": 88553, "BSTAR": 0.0043804834, "MEAN_MOTION_DOT": 0.00047128, "MEAN_MOTION_DDOT": 0}, "tle": {"line1": "1 34449U 93036SS  25337.36714866  .00047128  00000+0  43805-2 0  9999", "line2": "2 34449  74.0326  89.4468 0024799 138.3693 277.8177 14.93881728885530"}}, "geometry": {"type": "Point", "coordinates": [-129.63340234885843, 65.37418828981657]}}, {"type": "Feature", "properties": {"norad_id": 34451, "name": "COSMOS 2251 DEB", "group": "cosmos-2251-debris", "lat": 53.579029444109985, "lon": 129.1527709747508, "alt_km": 573.8572465525494, "timestamp": "2025-12-03T13:52:09.961169+00:00", "meta": {"OBJECT_NAME": "COSMOS 2251 DEB", "OBJECT_ID": "1993-036SU", "EPOCH": "2025-12-02T10:18:18.339552", "MEAN_MOTION": 14.94509424, "ECCENTRICITY": 0.00259091, "INCLINATION": 74.0446, "RA_OF_ASC_NODE": 108.65, "ARG_OF_PERICENTER": 135.584, "MEAN_ANOMALY": 224.7428, "EPHEMERIS_TYPE": 0, "CLASSIFICATION_TYPE": "U", "NORAD_CAT_ID": 34451, "ELEMENT_SET_NO": 999, "REV_AT_EPOCH": 88481, "BSTAR": 0.0036537809, "MEAN_MOTION_DOT": 0.00039917, "MEAN_MOTION_DDOT": 0}, "tle": {"line1": "1 34451U 93036SU  25336.42937893  .00039917  00000+0  36538-2 0  9997", "line2": "2 34451  74.0446 108.6500 0025909 135.5840 224.7428 14.94509424884815"}}, "geometry": {"type": "Point", "coordinates": [129.1527709747508, 53.579029444109985]}}, {"type": "Feature", "properties": {"norad_id": 34452, "name": "COSMOS 2251 DEB", "group": "cosmos-2251-debris", "lat": -30.198559575967895, "lon": -167.81503628551968, "alt_km": 506.90727246505503, "timestamp": "2025-12-03T13:52:09.961179+00:00", "meta": {"OBJECT_NAME": "COSMOS 2251 DEB", "OBJECT_ID": "1993-036SV", "EPOCH": "2025-12-03T01:58:09.137280", "MEAN_MOTION": 15.11274569, "ECCENTRICITY": 0.00673987, "INCLINATION": 74.0365, "RA_OF_ASC_NODE": 202.7999, "ARG_OF_PERICENTER": 281.1787, "MEAN_ANOMALY": 230.2729, "EPHEMERIS_TYPE": 0, "CLASSIFICATION_TYPE": "U", "NORAD_CAT_ID": 34452, "ELEMENT_SET_NO": 999, "REV_AT_EPOCH": 90516, "BSTAR": 0.0010437453, "MEAN_MOTION_DOT": 0.00018558, "MEAN_MOTION_DDOT": 0}, "tle": {"line1": "1 34452U 93036SV  25337.08205020  .00018558  00000+0  10437-2 0  9999", "line2": "2 34452  74.0365 202.7999 0067398 281.1787 230.2729 15.11274569905167"}}, "geometry": {"type": "Point", "coordinates": [-167.81503628551968, -30.198559575967895]}}, {"type": "Feature", "properties": {"norad_id": 34453, "name": "COSMOS 2251 DEB", "group": "cosmos-2251-debris", "lat": 64.38442543274044, "lon": 156.24602610333736, "alt_km": 384.68683873281134, "timestamp": "2025-12-03T13:52:09.961189+00:00", "meta": {"OBJECT_NAME": "COSMOS 2251 DEB", "OBJECT_ID": "1993-036SW", "EPOCH": "2025-12-03T08:56:51.584928", "MEAN_MOTION": 15.57401457, "ECCENTRICITY": 0.00186204, "INCLINATION": 74.1171, "RA_OF_ASC_NODE": 120.2655, "ARG_OF_PERICENTER": 353.9346, "MEAN_ANOMALY": 6.1643, "EPHEMERIS_TYPE": 0, "CLASSIFICATION_TYPE": "U", "NORAD_CAT_ID": 34453, "ELEMENT_SET_NO": 999, "REV_AT_EPOCH": 88720, "BSTAR": 0.010713794, "MEAN_MOTION_DOT": 0.00865647, "MEAN_MOTION_DDOT": 0}, "tle": {"line1": "1 34453U 93036SW  25337.37281927  .00865647  00000+0  10714-1 0  9998", "line2": "2 34453  74.1171 120.2655 0018620 353.9346   6.1643 15.57401457887207"}}, "geometry": {"type": "Point", "coordinates": [156.24602610333736, 64.38442543274044]}}, {"type": "Feature", "properties": {"norad_id": 34454, "name": "COSMOS 2251 DEB", "group": "cosmos-2251-debris", "lat": -54.03325294080513, "lon": 137.70669259588158, "alt_km": 782.3551998703288, "timestamp": "2025-12-03T13:52:09.961200+00:00", "meta": {"OBJECT_NAME": "COSMOS 2251 DEB", "OBJECT_ID": "1993-036SX", "EPOCH": "2025-12-03T07:45:44.301024", "MEAN_MOTION": 14.38781613, "ECCENTRICITY": 0.0035197, "INCLINATION": 74.0585, "RA_OF_ASC_NODE": 294.9786, "ARG_OF_PERICENTER": 359.572, "MEAN_ANOMALY": 0.5398, "EPHEMERIS_TYPE": 0, "CLASSIFICATION_TYPE": "U", "NORAD_CAT_ID": 34454, "ELEMENT_SET_NO": 999, "REV_AT_EPOCH": 87932, "BSTAR": 0.00041359837, "MEAN_MOTION_DOT": 1.254e-05, "MEAN_MOTION_DDOT": 0}, "tle": {"line1": "1 34454U 93036SX  25337.32342941  .00001254  00000+0  41360-3 0  9997", "line2": "2 34454  74.0585 294.9786 0035197 359.5720   0.5398 14.38781613879328"}}, "geometry": {"type": "Point", "coordinates": [137.70669259588158, -54.03325294080513]}}, {"type": "Feature", "properties": {"norad_id": 34459, "name": "COSMOS 2251 DEB", "group": "cosmos-2251-debris", "lat": 56.66508359604146, "lon": -64.3979086580891, "alt_km": 856.3278958144601, "timestamp": "2025-12-03T13:52:09.961211+00:00", "meta": {"OBJECT_NAME": "COSMOS 2251 DEB", "OBJECT_ID": "1993-036TC", "EPOCH": "2025-12-03T05:01:03.597888", "MEAN_MOTION": 14.0046957, "ECCENTRICITY": 0.01918702, "INCLINATION": 74.0791, "RA_OF_ASC_NODE": 270.5208, "ARG_OF_PERICENTER": 342.4627, "MEAN_ANOMALY": 16.9939, "EPHEMERIS_TYPE": 0, "CLASSIFICATION_TYPE": "U", "NORAD_CAT_ID": 34459, "ELEMENT_SET_NO": 999, "REV_AT_EPOCH": 85578, "BSTAR": 0.00090382063, "MEAN_MOTION_DOT": 1.548e-05, "MEAN_MOTION_DDOT": 0}, "tle": {"line1": "1 34459U 93036TC  25337.20906942  .00001548  00000+0  90382-3 0  9990", "line2": "2 34459  74.0791 270.5208 0191870 342.4627  16.9939 14.00469570855789"}}, "geometry": {"type": "Point", "coordinates": [-64.3979086580891, 56.66508359604146]}}]}